{
    "links": {
        "self": "http://www.neowsapp.com/rest/v1/neo/3768023?api_key=iIulBulltgU6a56xZRHN4H3l9WmuAYTsLGpBGhQ2"
    },
    "id": "3768023",
    "neo_reference_id": "3768023",
    "name": "(2017 CR)",
    "designation": "2017 CR",
    "nasa_jpl_url": "http://ssd.jpl.nasa.gov/sbdb.cgi?sstr=3768023",
    "absolute_magnitude_h": 26.5,
    "estimated_diameter": {
        "kilometers": {
            "estimated_diameter_min": 0.0133215567,
            "estimated_diameter_max": 0.0297879063
        },
        "meters": {
            "estimated_diameter_min": 13.3215566698,
            "estimated_diameter_max": 29.7879062798
        },
        "miles": {
            "estimated_diameter_min": 0.008277629,
            "estimated_diameter_max": 0.0185093411
        },
        "feet": {
            "estimated_diameter_min": 43.7058959846,
            "estimated_diameter_max": 97.7293544391
        }
    },
    "is_potentially_hazardous_asteroid": false,
    "close_approach_data": [
        {
            "close_approach_date": "2017-02-06",
            "close_approach_date_full": "2017-Feb-06 00:31",
            "epoch_date_close_approach": 1486341060000,
            "relative_velocity": {
                "kilometers_per_second": "18.1129149049",
                "kilometers_per_hour": "65206.4936576479",
                "miles_per_hour": "40516.7793507757"
            },
            "miss_distance": {
                "astronomical": "0.0094793424",
                "lunar": "3.6874641936",
                "kilometers": "1418089.432040688",
                "miles": "881159.9131419744"
            },
            "orbiting_body": "Moon"
        },
        {
            "close_approach_date": "2017-02-06",
            "close_approach_date_full": "2017-Feb-06 03:48",
            "epoch_date_close_approach": 1486352880000,
            "relative_velocity": {
                "kilometers_per_second": "17.2329818006",
                "kilometers_per_hour": "62038.7344822198",
                "miles_per_hour": "38548.4569897993"
            },
            "miss_distance": {
                "astronomical": "0.0109889209",
                "lunar": "4.2746902301",
                "kilometers": "1643919.160238483",
                "miles": "1021483.9993297454"
            },
            "orbiting_body": "Earth"
        }
    ],
    "orbital_data": {
        "orbit_id": "3",
        "orbit_determination_date": "2017-04-06 08:20:20",
        "first_observation_date": "2017-02-02",
        "last_observation_date": "2017-02-04",
        "data_arc_in_days": 2,
        "observations_used": 26,
        "orbit_uncertainty": "8",
        "minimum_orbit_intersection": ".0086406",
        "jupiter_tisserand_invariant": "3.499",
        "epoch_osculation": "2457787.5",
        "eccentricity": ".6444686044546073",
        "semi_major_axis": "2.04373431161396",
        "inclination": "6.130177684712564",
        "ascending_node_longitude": "312.2215111768834",
        "orbital_period": "1067.173620122205",
        "perihelion_distance": ".7266117119321137",
        "perihelion_argument": "255.6305348818455",
        "aphelion_distance": "3.360856911295806",
        "perihelion_time": "2457833.944078253368",
        "mean_anomaly": "344.3325698312353",
        "mean_motion": ".3373396729566606",
        "equinox": "J2000",
        "orbit_class": {
            "orbit_class_type": "APO",
            "orbit_class_description": "Near-Earth asteroid orbits which cross the Earth’s orbit similar to that of 1862 Apollo",
            "orbit_class_range": "a (semi-major axis) > 1.0 AU; q (perihelion) < 1.017 AU"
        }
    },
    "is_sentry_object": false
}